TEVEL2-1                
1 63217U 25052H   26127.64779811  .00012790  00000+0  40924-3 0  9994
2 63217  97.3920  23.6233 0000505 248.1895 111.9293 15.32544551 63883
TEVEL2-3                
1 63218U 25052J   26127.44790774  .00012532  00000+0  40053-3 0  9991
2 63218  97.3917  23.4407 0000519 254.1419 105.9765 15.32586019 63854
TEVEL2-2                
1 63219U 25052K   26127.45241872  .00012510  00000+0  40034-3 0  9998
2 63219  97.3918  23.4296 0000530 256.2484 103.8699 15.32544809 63854
TEVEL2-9                
1 63237U 25052AD  26127.24807855  .00012079  00000+0  40962-3 0  9994
2 63237  97.3984  22.6851 0004212 295.0647  65.0156 15.30675530 63769
TEVEL2-7                
1 63238U 25052AE  26127.67388243  .00011020  00000+0  37697-3 0  9993
2 63238  97.3980  23.0421 0004271 292.5848  67.4940 15.30419881 63823
TEVEL2-8                
1 63239U 25052AF  26127.68168148  .00010678  00000+0  36555-3 0  9995
2 63239  97.3981  23.0281 0004235 293.5171  66.5625 15.30402015 63820
HADES-ICM               
1 63492U 25052BN  26125.23154520  .00757455  00000+0  29228-2 0  9993
2 63492  97.3784  28.6812 0006451 159.5468 200.6062 15.85436039 64005
INNOSAT 16 (RS92S7)     
1 64878U 25155C   26127.78541750  .00005392  00000+0  21861-3 0  9995
2 64878  97.4544  95.0639 0009572 338.7441  21.3397 15.25020391 74513
GEOSCAN 6 (RS92S6)      
1 64879U 25155D   26127.75663674  .00008353  00000+0  29556-3 0  9992
2 64879  97.4540  96.1845 0006519 335.7670  24.3262 15.29390035 74580
GEOSCAN 1 (RS92S1)      
1 64880U 25155E   26127.77393404  .00009426  00000+0  32777-3 0  9998
2 64880  97.4536  96.3168 0006409 336.0385  24.0556 15.29923272 74591
239ALFEROV (RS61S)      
1 64881U 25155F   26127.73247453  .00011976  00000+0  39146-3 0  9997
2 64881  97.4539  96.7087 0005825 337.2463  22.8519 15.31864174 74616
GEOSCAN 2 (RS92S2)      
1 64890U 25155Q   26127.70948749  .00009001  00000+0  31045-3 0  9996
2 64890  97.4535  96.3884 0005330 321.5822  38.5038 15.30205773 74599
GEOSCAN 5 (RS92S5)      
1 64891U 25155R   26127.72991669  .00011732  00000+0  37976-3 0  9991
2 64891  97.4532  96.8282 0005052 348.7437  11.3690 15.32187620 74627
GEOSCAN 4 (RS92S4)      
1 64892U 25155S   26127.78313507  .00012076  00000+0  38918-3 0  9996
2 64892  97.4535  96.9192 0005077 349.6012  10.5124 15.32319426 74633
GEOSCAN 3 (RS92S3)      
1 64893U 25155T   26127.76733880  .00013966  00000+0  42589-3 0  9993
2 64893  97.4524  97.2248 0004753 353.0405   7.0771 15.34050807 74651
INNOSAT 3 (RS92S0)      
1 64894U 25155U   26127.76377366  .00030060  00000+0  72665-3 0  9999
2 64894  97.4482  98.3890 0003557   8.5203 351.6103 15.41100500 74739
KNACKSAT-2              
1 67683U 98067XZ  26127.75166280  .00029743  00000+0  41478-3 0  9994
2 67683  51.6281 137.3030 0012702  48.4802 311.7277 15.56559476 13971
